[{"OBJECT_NAME":"YAOGAN-36 02B","OBJECT_ID":"2022-133B","EPOCH":"2026-03-09T22:42:31.775904","MEAN_MOTION":15.30199518,"ECCENTRICITY":0.00056841,"INCLINATION":34.9983,"RA_OF_ASC_NODE":22.5268,"ARG_OF_PERICENTER":273.0351,"MEAN_ANOMALY":86.9715,"EPHEMERIS_TYPE":0,"CLASSIFICATION_TYPE":"U","NORAD_CAT_ID":54043,"ELEMENT_SET_NO":999,"REV_AT_EPOCH":18962,"BSTAR":0.00051218814,"MEAN_MOTION_DOT":0.00015352,"MEAN_MOTION_DDOT":0},{"OBJECT_NAME":"STARLINK-30416","OBJECT_ID":"2023-141H","EPOCH":"2026-03-09T20:46:43.750560","MEAN_MOTION":15.30199446,"ECCENTRICITY":6.974e-5,"INCLINATION":53.1589,"RA_OF_ASC_NODE":283.3602,"ARG_OF_PERICENTER":53.3687,"MEAN_ANOMALY":306.7378,"EPHEMERIS_TYPE":0,"CLASSIFICATION_TYPE":"U","NORAD_CAT_ID":57847,"ELEMENT_SET_NO":999,"REV_AT_EPOCH":14035,"BSTAR":0.00024997578,"MEAN_MOTION_DOT":7.052e-5,"MEAN_MOTION_DDOT":0}]
